MEAN_MOTION;ECCENTRICITY;INCLINATION;RA_OF_ASC_NODE;ARG_OF_PERICENTER;MEAN_ANOMALY;BSTAR;MEAN_MOTION_DOT;MEAN_MOTION_DDOT;TYPE
0.98213015;0.0002999;4.5399;71.1804;185.2308;172.2687;0;-1.98E-6;0;Intelsat
0.98212918;0.0002942;4.5412;71.1779;185.4455;17.7358;0;-1.98E-6;0;Intelsat
0.98212692;0.0002871;4.5425;71.1754;185.9309;217.0701;0;-1.95E-6;0;Intelsat
0.98212363;0.000275;4.5446;71.1714;186.2123;186.2788;0;-1.86E-6;0;Intelsat
0.98212209;0.0002678;4.5459;71.1687;186.1786;29.0971;0;-1.79E-6;0;Intelsat
0.98212036;0.0002622;4.5469;71.1669;186.265;181.0687;0;-1.72E-6;0;Intelsat
0.98211846;0.0002532;4.5482;71.1641;186.0905;29.086;0;-1.61E-6;0;Intelsat
0.98211491;0.0002389;4.5505;71.1599;185.7018;19.2224;0;-1.42E-6;0;Intelsat
0.98211351;0.0002331;4.5515;71.1581;185.3334;171.6539;0;-1.32E-6;0;Intelsat
0.98211086;0.0002184;4.5538;71.1537;184.3084;167.5333;0;-1.09E-6;0;Intelsat
0.98210949;0.0002095;4.5552;71.1506;183.6235;36.3019;0;-9.4E-7;0;Intelsat
0.98210898;0.0002048;4.5561;71.1492;182.8572;163.8109;0;-8.6E-7;0;Intelsat
0.98210781;0.0001921;4.5583;71.1442;180.9444;160.532;0;-6.4E-7;0;Intelsat
0.98210676;0.0001843;4.5598;71.1403;179.6435;50.6334;0;-5.1E-7;0;Intelsat
0.98210678;0.0001762;4.5618;71.135;177.2967;27.1036;0;-3.6E-7;0;Intelsat
0.98210731;0.0001686;4.5642;71.1283;174.1104;65.8745;0;-2.3E-7;0;Intelsat
0.98210772;0.0001674;4.5647;71.1271;173.21;152.7405;0;-2.1E-7;0;Intelsat
0.98210856;0.0001653;4.566;71.1231;171.5707;22.4913;0;-1.8E-7;0;Intelsat
0.98210918;0.0001638;4.5668;71.121;170.502;150.2979;0;-1.7E-7;0;Intelsat
0.98211035;0.0001631;4.5683;71.1165;168.7768;50.1508;0;-1.7E-7;0;Intelsat
0.98211184;0.0001629;4.5693;71.1134;167.4292;229.4305;0;-1.9E-7;0;Intelsat
0.98211274;0.000163;4.5701;71.111;166.6634;16.0327;0;-2.1E-7;0;Intelsat
0.98211329;0.000163;4.5703;71.1102;166.5553;60.2185;0;-2.2E-7;0;Intelsat
0.98211659;0.0001639;4.5724;71.104;164.737;59.747;0;-3.3E-7;0;Intelsat
0.98211825;0.0001641;4.5734;71.1008;163.8072;242.7968;0;-4.0E-7;0;Intelsat
0.98212003;0.0001652;4.5744;71.0977;163.2092;60.781;0;-4.9E-7;0;Intelsat
0.98212337;0.0001669;4.576;71.0922;162.365;5.8067;0;-6.5E-7;0;Intelsat
0.98212725;0.0001683;4.578;71.0858;161.5818;358.5165;0;-8.7E-7;0;Intelsat
0.98212775;0.0001683;4.5783;71.0848;161.3427;52.3502;0;-9.1E-7;0;Intelsat
0.98213186;0.0001701;4.5803;71.0783;161.0749;47.4223;0;-1.15E-6;0;Intelsat
0.98213562;0.0001712;4.5824;71.0716;160.9564;67.6575;0;-1.4E-6;0;Intelsat
0.98213817;0.000171;4.5841;71.0666;160.858;1.0188;0;-1.59E-6;0;Intelsat
0.98213864;0.0001714;4.5844;71.0656;160.9869;62.5291;0;-1.63E-6;0;Intelsat
0.98214019;0.0001709;4.5861;71.0607;161.0998;351.0384;0;-1.79E-6;0;Intelsat
0.98214065;0.0001713;4.5865;71.0597;161.3356;57.0251;0;-1.82E-6;0;Intelsat
0.98214145;0.0001698;4.5886;71.054;161.5449;48.8196;0;-1.97E-6;0;Intelsat
0.98214103;0.0001671;4.5907;71.0485;161.7906;46.2508;0;-2.07E-6;0;Intelsat
0.98213938;0.0001629;4.5929;71.0435;161.77;41.1047;0;-2.1E-6;0;Intelsat
0.98213577;0.0001567;4.5953;71.0386;161.6165;61.4438;0;-2.06E-6;0;Intelsat
0.98213096;0.0001491;4.5976;71.0343;160.9012;69.5718;0;-1.94E-6;0;Intelsat
0.98212563;0.0001406;4.5998;71.0308;159.4035;53.3027;0;-1.77E-6;0;Intelsat
0.98211964;0.0001309;4.602;71.0271;157.0014;50.5421;0;-1.55E-6;0;Intelsat
0.98211364;0.0001212;4.6043;71.0234;153.336;49.0485;0;-1.29E-6;0;Intelsat
0.9821134;0.0001208;4.6044;71.023;153.0943;74.6133;0;-1.27E-6;0;Intelsat
0.98210853;0.0001124;4.6065;71.0195;148.4419;53.4077;0;-1.0E-6;0;Intelsat
0.98210382;0.0001053;4.6088;71.0157;142.1324;49.898;0;-7.3E-7;0;Intelsat
0.98209997;0.0001008;4.6111;71.0116;134.4814;60.5066;0;-4.7E-7;0;Intelsat
0.98209882;0.0001004;4.6124;71.0094;130.2527;259.3524;0;-3.5E-7;0;Intelsat
0.98209831;9.96E-5;4.6135;71.0073;125.9968;81.0214;0;-2.6E-7;0;Intelsat
0.98209833;0.0001011;4.6156;71.0035;118.669;57.8206;0;-1.3E-7;0;Intelsat
0.98209957;0.0001062;4.6178;70.999;111.5452;59.7653;0;-6.0E-8;0;Intelsat
0.98209998;0.0001072;4.6181;70.9982;110.6964;111.2904;0;-5.0E-8;0;Intelsat
0.98210252;0.0001131;4.6199;70.9941;106.523;59.6206;0;-6.0E-8;0;Intelsat
0.98210654;0.0001216;4.622;70.989;102.7451;53.4966;0;-1.5E-7;0;Intelsat
0.98210743;0.0001226;4.6223;70.9881;102.2701;109.3705;0;-1.7E-7;0;Intelsat
0.98210982;0.0001287;4.6234;70.9854;100.7507;288.3039;0;-2.4E-7;0;Intelsat
0.98211142;0.0001311;4.6242;70.9835;100.0624;61.7147;0;-3.0E-7;0;Intelsat
0.98211527;0.0001376;4.6255;70.98;98.9143;284.943;0;-4.2E-7;0;Intelsat
0.98211689;0.0001403;4.6263;70.9783;98.6281;51.9814;0;-5.0E-7;0;Intelsat
0.98212044;0.000145;4.6274;70.975;97.9838;255.3793;0;-6.3E-7;0;Intelsat
0.98212117;0.0001467;4.6277;70.9741;98.0381;306.0073;0;-6.7E-7;0;Intelsat
0.98212249;0.0001487;4.6283;70.9727;98.0348;47.3961;0;-7.4E-7;0;Intelsat
0.98212787;0.0001561;4.6303;70.9674;98.1361;42.1182;0;-9.9E-7;0;Intelsat
0.98213167;0.0001606;4.6318;70.9635;98.1861;295.5012;0;-1.16E-6;0;Intelsat
0.98213278;0.0001624;4.6323;70.9621;98.6283;36.4764;0;-1.23E-6;0;Intelsat
0.98213592;0.0001664;4.6337;70.9581;98.7051;289.8328;0;-1.39E-6;0;Intelsat
0.98213958;0.0001726;4.636;70.9518;99.6032;340.6181;0;-1.61E-6;0;Intelsat
0.98214102;0.0001762;4.6377;70.947;100.1704;278.0323;0;-1.72E-6;0;Intelsat
0.98214162;0.0001803;4.6401;70.9403;101.2358;348.2347;0;-1.81E-6;0;Intelsat
0.98214156;0.000181;4.6407;70.9387;101.7923;98.4785;0;-1.83E-6;0;Intelsat
0.98214119;0.0001812;4.641;70.9381;101.9206;140.5832;0;-1.83E-6;0;Intelsat
0.98214082;0.0001824;4.6418;70.9357;101.8703;291.3206;0;-1.83E-6;0;Intelsat
0.98214023;0.0001833;4.643;70.9327;102.5969;139.9215;0;-1.81E-6;0;Intelsat
0.98213889;0.0001848;4.6442;70.9298;102.4611;331.1665;0;-1.78E-6;0;Intelsat
0.98213771;0.0001847;4.6451;70.9277;103.0598;128.0792;0;-1.75E-6;0;Intelsat
0.98213631;0.0001854;4.6458;70.9259;102.9539;254.5653;0;-1.71E-6;0;Intelsat
0.98213168;0.0001861;4.6483;70.9207;102.9342;300.0795;0;-1.56E-6;0;Intelsat
0.98212937;0.000186;4.6494;70.9184;102.9796;130.2936;0;-1.47E-6;0;Intelsat
0.98212687;0.0001861;4.6504;70.9164;102.5673;295.2989;0;-1.39E-6;0;Intelsat
0.98212182;0.0001858;4.6526;70.9127;101.6645;291.0052;0;-1.2E-6;0;Intelsat
0.98211665;0.0001855;4.6548;70.9092;100.281;287.2166;0;-1.0E-6;0;Intelsat
0.9821142;0.0001861;4.6561;70.9072;99.2261;133.4494;0;-8.8E-7;0;Intelsat
0.98210762;0.0001878;4.6592;70.9029;95.9311;269.5091;0;-6.2E-7;0;Intelsat
0.98210594;0.0001893;4.66;70.9016;94.6965;42.9212;0;-5.5E-7;0;Intelsat
0.9821055;0.0001906;4.6605;70.9011;94.1706;125.7423;0;-5.1E-7;0;Intelsat
0.98210378;0.0001917;4.6614;70.8999;93.0955;271.8041;0;-4.4E-7;0;Intelsat
0.98210242;0.0001948;4.6626;70.8982;91.3665;117.1217;0;-3.6E-7;0;Intelsat
0.98210108;0.0001975;4.6638;70.8966;89.9919;302.1314;0;-2.9E-7;0;Intelsat
0.98210052;0.0002017;4.6649;70.8948;88.4344;132.5645;0;-2.3E-7;0;Intelsat
0.98210071;0.0002028;4.6654;70.8939;88.045;203.2793;0;-2.1E-7;0;Intelsat
0.98210026;0.0002128;4.668;70.8901;85.1355;271.2768;0;-1.3E-7;0;Intelsat
0.98210117;0.0002184;4.6694;70.8876;83.6046;140.9155;0;-1.2E-7;0;Intelsat
0.98210295;0.0002285;4.6714;70.884;81.7945;117.3103;0;-1.4E-7;0;Intelsat
0.98210645;0.0002415;4.6737;70.8797;80.3141;133.8377;0;-2.2E-7;0;Intelsat
0.98210841;0.0002481;4.6746;70.8779;79.9883;286.2526;0;-2.7E-7;0;Intelsat
0.98211039;0.0002534;4.6757;70.8756;79.39;118.2003;0;-3.5E-7;0;Intelsat
0.98211694;0.0002673;4.6782;70.8701;78.956;169.0049;0;-5.6E-7;0;Intelsat
0.98212228;0.0002792;4.6802;70.8652;78.9542;160.547;0;-7.8E-7;0;Intelsat
0.98212781;0.0002898;4.6822;70.8602;79.3011;151.6512;0;-1.03E-6;0;Intelsat
0.98213077;0.0002968;4.6833;70.8574;79.7607;342.6449;0;-1.17E-6;0;Intelsat
0.98213338;0.0003006;4.6843;70.8551;79.9246;144.4233;0;-1.28E-6;0;Intelsat
0.9821383;0.0003097;4.6863;70.8501;80.7779;141.6272;0;-1.53E-6;0;Intelsat
0.9821418;0.000317;4.688;70.8456;81.7047;96.2476;0;-1.72E-6;0;Intelsat
0.98214266;0.0003173;4.6883;70.8451;81.8063;138.1888;0;-1.75E-6;0;Intelsat
0.98214568;0.0003247;4.6905;70.8396;82.9828;175.7216;0;-1.93E-6;0;Intelsat
0.98214663;0.0003302;4.692;70.8354;83.9805;104.3917;0;-2.02E-6;0;Intelsat
0.98214681;0.0003363;4.6941;70.83;85.1951;127.9614;0;-2.07E-6;0;Intelsat
0.9821456;0.0003401;4.696;70.8248;86.3031;121.6934;0;-2.03E-6;0;Intelsat
0.98214502;0.000341;4.6965;70.8236;86.5006;202.7965;0;-2.02E-6;0;Intelsat
0.98214226;0.0003434;4.698;70.8196;87.3235;115.4931;0;-1.93E-6;0;Intelsat
0.98213795;0.0003455;4.7001;70.8144;88.324;134.6435;0;-1.74E-6;0;Intelsat
0.98212659;0.0003486;4.7042;70.8054;89.622;109.31;0;-1.25E-6;0;Intelsat
0.98211984;0.0003507;4.7063;70.8014;89.9905;104.3817;0;-9.7E-7;0;Intelsat
0.98211177;0.000351;4.7088;70.7971;90.1545;168.5374;0;-6.4E-7;0;Intelsat
0.98210669;0.0003528;4.7107;70.7939;89.9398;132.499;0;-4.1E-7;0;Intelsat
0.98210161;0.0003548;4.7129;70.7906;89.4506;127.7937;0;-2.1E-7;0;Intelsat
0.98209781;0.0003577;4.7152;70.7875;88.6783;143.4866;0;-6.0E-8;0;Intelsat
0.98209631;0.0003591;4.7161;70.7862;88.3376;301.1224;0;-1.0E-8;0;Intelsat
0.9820959;0.0003629;4.7172;70.7847;87.8019;119.0707;0;2.0E-8;0;Intelsat
0.9820955;0.0003693;4.7193;70.7815;86.8504;103.0114;0;2.0E-8;0;Intelsat
0.98209623;0.0003734;4.7206;70.7796;86.3931;318.0521;0;-1.0E-8;0;Intelsat
0.98209766;0.0003782;4.7216;70.778;85.8449;129.2371;0;-5.0E-8;0;Intelsat
0.98209922;0.0003822;4.7227;70.7763;85.4906;313.7678;0;-1.1E-7;0;Intelsat
0.98210318;0.0003917;4.7248;70.7726;84.6641;309.4088;0;-2.8E-7;0;Intelsat
0.98210501;0.000395;4.7255;70.7711;84.2992;76.5131;0;-3.5E-7;0;Intelsat
0.98211163;0.0004084;4.7279;70.7664;83.6711;122.6407;0;-6.1E-7;0;Intelsat
0.98211748;0.0004179;4.7298;70.762;83.3112;91.329;0;-8.5E-7;0;Intelsat
0.98211833;0.0004197;4.7301;70.7613;83.2592;141.0652;0;-8.9E-7;0;Intelsat
0.98212352;0.0004297;4.7319;70.757;83.1393;87.4544;0;-1.12E-6;0;Intelsat
0.98212937;0.000442;4.7339;70.7519;83.236;82.1999;0;-1.37E-6;0;Intelsat
0.98213022;0.0004435;4.7342;70.7512;83.2265;132.8874;0;-1.41E-6;0;Intelsat
0.98213433;0.0004532;4.7357;70.7472;83.5345;51.3787;0;-1.58E-6;0;Intelsat
0.98213823;0.0004635;4.7375;70.7425;83.9945;15.5381;0;-1.75E-6;0;Intelsat
